CCSDS_OMM_VERS,COMMENT,CREATION_DATE,ORIGINATOR,OBJECT_NAME,OBJECT_ID,CENTER_NAME,REF_FRAME,TIME_SYSTEM,MEAN_ELEMENT_THEORY,EPOCH,MEAN_MOTION,ECCENTRICITY,INCLINATION,RA_OF_ASC_NODE,ARG_OF_PERICENTER,MEAN_ANOMALY,EPHEMERIS_TYPE,CLASSIFICATION_TYPE,NORAD_CAT_ID,ELEMENT_SET_NO,REV_AT_EPOCH,BSTAR,MEAN_MOTION_DOT,MEAN_MOTION_DDOT,SEMIMAJOR_AXIS,PERIOD,APOAPSIS,PERIAPSIS,OBJECT_TYPE,RCS_SIZE,COUNTRY_CODE,LAUNCH_DATE,SITE,DECAY_DATE,FILE,GP_ID,TLE_LINE0,TLE_LINE1,TLE_LINE2
"2.0","GENERATED VIA SPACE-TRACK.ORG API","2009-02-26T08:14:10","18 SPCS","IRIDIUM 33","1997-051C","EARTH","TEME","UTC","SGP4","2009-02-25T22:04:10.076448","14.32468122","0.00101040","86.3874","114.9353","44.6051","315.5958","0","U","24946","999","59964","0.00001250700000","0.00000054","0.0000000000000","7161.634","100.525","790.735","776.263","PAYLOAD","LARGE","US","1997-09-14","TTMTR","","678074","70079813","0 IRIDIUM 33","1 24946U 97051C   09056.91956107  .00000054  00000-0  12507-4 0  9993","2 24946 086.3874 114.9353 0010104 044.6051 315.5958 14.32468122599647"
"2.0","GENERATED VIA SPACE-TRACK.ORG API","2009-02-26T08:18:36","18 SPCS","COSMOS 2251","1993-036A","EARTH","TEME","UTC","SGP4","2009-02-26T08:02:15.441215","14.32043372","0.00248150","74.0400","348.7442","127.3024","233.0386","0","U","22675","999","81982","-0.00001718900000","-0.00000072","0.0000000000000","7163.050","100.555","802.690","767.140","PAYLOAD","LARGE","CIS","1993-06-16","PKMTR","","678085","70079888","0 COSMOS 2251","1 22675U 93036A   09057.33490094 -.00000072  00000-0 -17189-4 0  9997","2 22675 074.0400 348.7442 0024815 127.3024 233.0386 14.32043372819822"
"2.0","GENERATED VIA SPACE-TRACK.ORG API","2009-02-26T07:17:33","18 SPCS","COSMOS 2251","1993-036A","EARTH","TEME","UTC","SGP4","2009-02-26T08:02:16.339775","14.32043644","0.00244990","74.0394","348.7414","126.2751","234.1150","0","U","22675","999","81982","0.00006481400000","0.00000175","0.0000000000000","7163.049","100.555","802.463","767.365","PAYLOAD","LARGE","CIS","1993-06-16","PKMTR","","678023","70078607","0 COSMOS 2251","1 22675U 93036A   09057.33491134  .00000175  00000-0  64814-4 0  9992","2 22675 074.0394 348.7414 0024499 126.2751 234.1150 14.32043644819829"
"2.0","GENERATED VIA SPACE-TRACK.ORG API","2009-02-26T08:18:28","18 SPCS","IRIDIUM 33","1997-051C","EARTH","TEME","UTC","SGP4","2009-02-26T13:09:28.221120","14.32468554","0.00100540","86.3873","114.6727","42.7335","317.4681","0","U","24946","999","59973","0.00002442100000","0.00000086","0.0000000000000","7161.632","100.525","790.698","776.297","PAYLOAD","LARGE","US","1997-09-14","TTMTR","","678084","70079887","0 IRIDIUM 33","1 24946U 97051C   09057.54824330  .00000086  00000-0  24421-4 0  9998","2 24946 086.3873 114.6727 0010054 042.7335 317.4681 14.32468554599739"
"2.0","GENERATED VIA SPACE-TRACK.ORG API","2009-02-27T09:23:28","18 SPCS","IRIDIUM 33","1997-051C","EARTH","TEME","UTC","SGP4","2009-02-26T13:09:28.221120","14.32468554","0.00100540","86.3873","114.6727","42.7335","317.4681","0","U","24946","999","59973","0.00002442100000","0.00000086","0.0000000000000","7161.632","100.525","790.698","776.297","PAYLOAD","LARGE","US","1997-09-14","TTMTR","","678693","70102368","0 IRIDIUM 33","1 24946U 97051C   09057.54824330  .00000086  00000-0  24421-4 0  9998","2 24946 086.3873 114.6727 0010054 042.7335 317.4681 14.32468554599739"
"2.0","GENERATED VIA SPACE-TRACK.ORG API","2009-02-26T12:59:24","18 SPCS","COSMOS 2251","1993-036A","EARTH","TEME","UTC","SGP4","2009-02-26T18:05:50.880768","14.32043490","0.00245670","74.0411","347.9764","125.7094","234.6831","0","U","22675","999","81988","0.00000000000000","-0.00000008","0.0000000000000","7163.049","100.555","802.512","767.317","PAYLOAD","LARGE","CIS","1993-06-16","PKMTR","","678189","70087630","0 COSMOS 2251","1 22675U 93036A   09057.75406112 -.00000008  00000-0  00000+0 0  9998","2 22675 074.0411 347.9764 0024567 125.7094 234.6831 14.32043490819884"
"2.0","GENERATED VIA SPACE-TRACK.ORG API","2009-02-27T09:27:51","18 SPCS","COSMOS 2251","1993-036A","EARTH","TEME","UTC","SGP4","2009-02-27T07:30:36.138527","14.32043346","0.00248300","74.0402","346.9611","125.1894","235.1583","0","U","22675","999","81996","-0.00001429000000","-0.00000064","0.0000000000000","7163.050","100.555","802.701","767.129","PAYLOAD","LARGE","CIS","1993-06-16","PKMTR","","678702","70102441","0 COSMOS 2251","1 22675U 93036A   09058.31291827 -.00000064  00000-0 -14290-4 0  9990","2 22675 074.0402 346.9611 0024830 125.1894 235.1583 14.32043346819968"
"2.0","GENERATED VIA SPACE-TRACK.ORG API","2009-02-27T09:27:58","18 SPCS","IRIDIUM 33","1997-051C","EARTH","TEME","UTC","SGP4","2009-02-27T12:37:43.020767","14.32468839","0.00099870","86.3871","114.2639","40.0952","320.0988","0","U","24946","999","59987","0.00003149900000","0.00000105","0.0000000000000","7161.631","100.525","790.649","776.344","PAYLOAD","LARGE","US","1997-09-14","TTMTR","","678703","70102442","0 IRIDIUM 33","1 24946U 97051C   09058.52619237  .00000105  00000-0  31499-4 0  9990","2 24946 086.3871 114.2639 0009987 040.0952 320.0988 14.32468839599875"
"2.0","GENERATED VIA SPACE-TRACK.ORG API","2009-02-28T09:17:10","18 SPCS","IRIDIUM 33","1997-051C","EARTH","TEME","UTC","SGP4","2009-02-27T12:37:43.020767","14.32468839","0.00099870","86.3871","114.2639","40.0952","320.0988","0","U","24946","999","59987","0.00003149900000","0.00000105","0.0000000000000","7161.631","100.525","790.649","776.344","PAYLOAD","LARGE","US","1997-09-14","TTMTR","","679342","70116871","0 IRIDIUM 33","1 24946U 97051C   09058.52619237  .00000105  00000-0  31499-4 0  9990","2 24946 086.3871 114.2639 0009987 040.0952 320.0988 14.32468839599875"
"2.0","GENERATED VIA SPACE-TRACK.ORG API","2009-03-01T09:09:34","18 SPCS","COSMOS 2251","1993-036A","EARTH","TEME","UTC","SGP4","2009-03-01T11:29:04.796735","14.32043100","0.00247470","74.0404","343.0126","120.4733","239.8866","0","U","22675","999","82027","-0.00001921500000","-0.00000078","0.0000000000000","7163.051","100.555","802.642","767.189","PAYLOAD","LARGE","CIS","1993-06-16","PKMTR","","679691","70123646","0 COSMOS 2251","1 22675U 93036A   09060.47852774 -.00000078  00000-0 -19215-4 0  9991","2 22675 074.0404 343.0126 0024747 120.4733 239.8866 14.32043100820275"
"2.0","GENERATED VIA SPACE-TRACK.ORG API","2009-03-01T09:09:22","18 SPCS","IRIDIUM 33","1997-051C","EARTH","TEME","UTC","SGP4","2009-03-01T13:14:48.031584","14.32469107","0.00099870","86.3871","113.4173","33.5080","326.6730","0","U","24946","999","60016","0.00002988100000","0.00000101","0.0000000000000","7161.631","100.525","790.648","776.343","PAYLOAD","LARGE","US","1997-09-14","TTMTR","","679690","70123645","0 IRIDIUM 33","1 24946U 97051C   09060.55194481  .00000101  00000-0  29881-4 0  9993","2 24946 086.3871 113.4173 0009987 033.5080 326.6730 14.32469107600169"
"2.0","GENERATED VIA SPACE-TRACK.ORG API","2009-03-01T10:47:34","18 SPCS","IRIDIUM 33","1997-051C","EARTH","TEME","UTC","SGP4","2009-03-01T13:14:48.031584","14.32469107","0.00099870","86.3871","113.4173","33.5080","326.6730","0","U","24946","999","60016","0.00002988100000","0.00000101","0.0000000000000","7161.631","100.525","790.648","776.343","PAYLOAD","LARGE","US","1997-09-14","TTMTR","","679716","70131136","0 IRIDIUM 33","1 24946U 97051C   09060.55194481  .00000101  00000-0  29881-4 0  9993","2 24946 086.3871 113.4173 0009987 033.5080 326.6730 14.32469107600169"
"2.0","GENERATED VIA SPACE-TRACK.ORG API","2009-03-02T07:42:49","18 SPCS","IRIDIUM 33","1997-051C","EARTH","TEME","UTC","SGP4","2009-03-01T13:14:48.031584","14.32469107","0.00099870","86.3871","113.4173","33.5080","326.6730","0","U","24946","999","60016","0.00002988100000","0.00000101","0.0000000000000","7161.631","100.525","790.648","776.343","PAYLOAD","LARGE","US","1997-09-14","TTMTR","","680038","70137994","0 IRIDIUM 33","1 24946U 97051C   09060.55194481  .00000101  00000-0  29881-4 0  9993","2 24946 086.3871 113.4173 0009987 033.5080 326.6730 14.32469107600169"
"2.0","GENERATED VIA SPACE-TRACK.ORG API","2009-03-02T12:47:19","18 SPCS","COSMOS 2251","1993-036A","EARTH","TEME","UTC","SGP4","2009-03-02T09:16:49.719648","14.32043126","0.00246840","74.0404","341.3564","118.3365","242.0277","0","U","22675","999","82040","-0.00001376600000","-0.00000063","0.0000000000000","7163.051","100.555","802.597","767.234","PAYLOAD","LARGE","CIS","1993-06-16","PKMTR","","680096","70146093","0 COSMOS 2251","1 22675U 93036A   09061.38668657 -.00000063  00000-0 -13766-4 0  9996","2 22675 074.0404 341.3564 0024684 118.3365 242.0277 14.32043126820404"
"2.0","GENERATED VIA SPACE-TRACK.ORG API","2009-03-02T12:48:02","18 SPCS","IRIDIUM 33","1997-051C","EARTH","TEME","UTC","SGP4","2009-03-02T17:44:48.914592","14.32468825","0.00096070","86.3858","112.9204","32.0464","328.1292","0","U","24946","999","60033","0.00001490200000","0.00000060","0.0000000000000","7161.631","100.525","790.377","776.616","PAYLOAD","LARGE","US","1997-09-14","TTMTR","","680097","70146094","0 IRIDIUM 33","1 24946U 97051C   09061.73945503  .00000060  00000-0  14902-4 0  9995","2 24946 086.3858 112.9204 0009607 032.0464 328.1292 14.32468825600337"
"2.0","GENERATED VIA SPACE-TRACK.ORG API","2009-03-03T08:17:08","18 SPCS","IRIDIUM 33","1997-051C","EARTH","TEME","UTC","SGP4","2009-03-02T17:44:48.914592","14.32468825","0.00096070","86.3858","112.9204","32.0464","328.1292","0","U","24946","999","60033","0.00001490200000","0.00000060","0.0000000000000","7161.631","100.525","790.377","776.616","PAYLOAD","LARGE","US","1997-09-14","TTMTR","","680477","70152239","0 IRIDIUM 33","1 24946U 97051C   09061.73945503  .00000060  00000-0  14902-4 0  9995","2 24946 086.3858 112.9204 0009607 032.0464 328.1292 14.32468825600337"
